[{"OBJECT_NAME":"METEOSAT-11 (MSG-4)","OBJECT_ID":"2015-034A","EPOCH":"2026-03-15T06:42:38.858688","MEAN_MOTION":1.00269539,"ECCENTRICITY":0.00018323,"INCLINATION":2.9656,"RA_OF_ASC_NODE":71.6157,"ARG_OF_PERICENTER":275.2073,"MEAN_ANOMALY":295.9483,"EPHEMERIS_TYPE":0,"CLASSIFICATION_TYPE":"U","NORAD_CAT_ID":40732,"ELEMENT_SET_NO":999,"REV_AT_EPOCH":627,"BSTAR":0,"MEAN_MOTION_DOT":6.2e-7,"MEAN_MOTION_DDOT":0},{"OBJECT_NAME":"ELEKTRO-L 2","OBJECT_ID":"2015-074A","EPOCH":"2026-03-15T06:41:22.970976","MEAN_MOTION":1.00273414,"ECCENTRICITY":0.00028074,"INCLINATION":6.4571,"RA_OF_ASC_NODE":71.6721,"ARG_OF_PERICENTER":249.8242,"MEAN_ANOMALY":297.22,"EPHEMERIS_TYPE":0,"CLASSIFICATION_TYPE":"U","NORAD_CAT_ID":41105,"ELEMENT_SET_NO":999,"REV_AT_EPOCH":3756,"BSTAR":0,"MEAN_MOTION_DOT":-1.14e-6,"MEAN_MOTION_DDOT":0},{"OBJECT_NAME":"INSAT-3DR","OBJECT_ID":"2016-054A","EPOCH":"2026-03-15T01:58:35.090976","MEAN_MOTION":1.00271936,"ECCENTRICITY":0.00127089,"INCLINATION":0.0736,"RA_OF_ASC_NODE":91.5367,"ARG_OF_PERICENTER":190.6992,"MEAN_ANOMALY":354.0875,"EPHEMERIS_TYPE":0,"CLASSIFICATION_TYPE":"U","NORAD_CAT_ID":41752,"ELEMENT_SET_NO":999,"REV_AT_EPOCH":3487,"BSTAR":0,"MEAN_MOTION_DOT":-7.8e-7,"MEAN_MOTION_DDOT":0},{"OBJECT_NAME":"HIMAWARI-9","OBJECT_ID":"2016-064A","EPOCH":"2026-03-13T07:47:51.644256","MEAN_MOTION":1.00270032,"ECCENTRICITY":0.00014931,"INCLINATION":0.0168,"RA_OF_ASC_NODE":188.9082,"ARG_OF_PERICENTER":206.6887,"MEAN_ANOMALY":33.0744,"EPHEMERIS_TYPE":0,"CLASSIFICATION_TYPE":"U","NORAD_CAT_ID":41836,"ELEMENT_SET_NO":999,"REV_AT_EPOCH":3424,"BSTAR":0,"MEAN_MOTION_DOT":-2.75e-6,"MEAN_MOTION_DDOT":0},{"OBJECT_NAME":"GOES 16","OBJECT_ID":"2016-071A","EPOCH":"2026-03-15T06:15:40.434624","MEAN_MOTION":1.00272428,"ECCENTRICITY":0.00021687,"INCLINATION":0.1254,"RA_OF_ASC_NODE":86.8652,"ARG_OF_PERICENTER":230.0129,"MEAN_ANOMALY":205.2111,"EPHEMERIS_TYPE":0,"CLASSIFICATION_TYPE":"U","NORAD_CAT_ID":41866,"ELEMENT_SET_NO":999,"REV_AT_EPOCH":3416,"BSTAR":0,"MEAN_MOTION_DOT":-9.2e-7,"MEAN_MOTION_DDOT":0},{"OBJECT_NAME":"FENGYUN 4A","OBJECT_ID":"2016-077A","EPOCH":"2026-03-15T07:20:49.188768","MEAN_MOTION":1.00274081,"ECCENTRICITY":0.00071389,"INCLINATION":2.0823,"RA_OF_ASC_NODE":81.2695,"ARG_OF_PERICENTER":133.1891,"MEAN_ANOMALY":192.4143,"EPHEMERIS_TYPE":0,"CLASSIFICATION_TYPE":"U","NORAD_CAT_ID":41882,"ELEMENT_SET_NO":999,"REV_AT_EPOCH":3398,"BSTAR":0,"MEAN_MOTION_DOT":-3.56e-6,"MEAN_MOTION_DDOT":0},{"OBJECT_NAME":"CYGFM05","OBJECT_ID":"2016-078A","EPOCH":"2026-03-14T15:39:19.969344","MEAN_MOTION":15.52451571,"ECCENTRICITY":0.00067011,"INCLINATION":34.9574,"RA_OF_ASC_NODE":164.6361,"ARG_OF_PERICENTER":330.1782,"MEAN_ANOMALY":29.8559,"EPHEMERIS_TYPE":0,"CLASSIFICATION_TYPE":"U","NORAD_CAT_ID":41884,"ELEMENT_SET_NO":999,"REV_AT_EPOCH":51403,"BSTAR":0.00048299288,"MEAN_MOTION_DOT":0.0003058,"MEAN_MOTION_DDOT":0},{"OBJECT_NAME":"CYGFM04","OBJECT_ID":"2016-078B","EPOCH":"2026-03-15T06:25:42.065472","MEAN_MOTION":15.5597346,"ECCENTRICITY":0.00049549,"INCLINATION":34.9331,"RA_OF_ASC_NODE":132.454,"ARG_OF_PERICENTER":13.1189,"MEAN_ANOMALY":346.9663,"EPHEMERIS_TYPE":0,"CLASSIFICATION_TYPE":"U","NORAD_CAT_ID":41885,"ELEMENT_SET_NO":999,"REV_AT_EPOCH":51433,"BSTAR":0.00043169604,"MEAN_MOTION_DOT":0.00031087,"MEAN_MOTION_DDOT":0},{"OBJECT_NAME":"CYGFM02","OBJECT_ID":"2016-078C","EPOCH":"2026-03-15T05:23:37.848768","MEAN_MOTION":15.58321272,"ECCENTRICITY":0.00059457,"INCLINATION":34.9415,"RA_OF_ASC_NODE":129.5149,"ARG_OF_PERICENTER":16.1137,"MEAN_ANOMALY":343.9776,"EPHEMERIS_TYPE":0,"CLASSIFICATION_TYPE":"U","NORAD_CAT_ID":41886,"ELEMENT_SET_NO":999,"REV_AT_EPOCH":51447,"BSTAR":0.00043770634,"MEAN_MOTION_DOT":0.00034447,"MEAN_MOTION_DDOT":0},{"OBJECT_NAME":"CYGFM01","OBJECT_ID":"2016-078D","EPOCH":"2026-03-14T22:26:39.029280","MEAN_MOTION":15.52921053,"ECCENTRICITY":0.00064299,"INCLINATION":34.9406,"RA_OF_ASC_NODE":164.5289,"ARG_OF_PERICENTER":323.5571,"MEAN_ANOMALY":36.4713,"EPHEMERIS_TYPE":0,"CLASSIFICATION_TYPE":"U","NORAD_CAT_ID":41887,"ELEMENT_SET_NO":999,"REV_AT_EPOCH":51402,"BSTAR":0.00044624059,"MEAN_MOTION_DOT":0.00028727,"MEAN_MOTION_DDOT":0},{"OBJECT_NAME":"CYGFM08","OBJECT_ID":"2016-078E","EPOCH":"2026-03-15T05:30:54.619776","MEAN_MOTION":15.54822338,"ECCENTRICITY":0.00073183,"INCLINATION":34.9437,"RA_OF_ASC_NODE":144.3382,"ARG_OF_PERICENTER":356.4495,"MEAN_ANOMALY":3.6176,"EPHEMERIS_TYPE":0,"CLASSIFICATION_TYPE":"U","NORAD_CAT_ID":41888,"ELEMENT_SET_NO":999,"REV_AT_EPOCH":51431,"BSTAR":0.00041871739,"MEAN_MOTION_DOT":0.00028902,"MEAN_MOTION_DDOT":0},{"OBJECT_NAME":"CYGFM07","OBJECT_ID":"2016-078G","EPOCH":"2026-03-15T06:13:40.498464","MEAN_MOTION":15.55175155,"ECCENTRICITY":0.00054722,"INCLINATION":34.9454,"RA_OF_ASC_NODE":132.5718,"ARG_OF_PERICENTER":16.9766,"MEAN_ANOMALY":343.114,"EPHEMERIS_TYPE":0,"CLASSIFICATION_TYPE":"U","NORAD_CAT_ID":41890,"ELEMENT_SET_NO":999,"REV_AT_EPOCH":51434,"BSTAR":0.00040422445,"MEAN_MOTION_DOT":0.00028249,"MEAN_MOTION_DDOT":0},{"OBJECT_NAME":"CYGFM03","OBJECT_ID":"2016-078H","EPOCH":"2026-03-15T05:31:57.222624","MEAN_MOTION":15.55177453,"ECCENTRICITY":0.00049516,"INCLINATION":34.9408,"RA_OF_ASC_NODE":134.7365,"ARG_OF_PERICENTER":358.9951,"MEAN_ANOMALY":1.0762,"EPHEMERIS_TYPE":0,"CLASSIFICATION_TYPE":"U","NORAD_CAT_ID":41891,"ELEMENT_SET_NO":999,"REV_AT_EPOCH":51431,"BSTAR":0.00041123199,"MEAN_MOTION_DOT":0.00028741,"MEAN_MOTION_DDOT":0},{"OBJECT_NAME":"FENGYUN 3D","OBJECT_ID":"2017-072A","EPOCH":"2026-03-15T06:34:53.375232","MEAN_MOTION":14.1971719,"ECCENTRICITY":0.00013326,"INCLINATION":99.0034,"RA_OF_ASC_NODE":47.0455,"ARG_OF_PERICENTER":1.1242,"MEAN_ANOMALY":358.9936,"EPHEMERIS_TYPE":0,"CLASSIFICATION_TYPE":"U","NORAD_CAT_ID":43010,"ELEMENT_SET_NO":999,"REV_AT_EPOCH":43166,"BSTAR":0.00015381192,"MEAN_MOTION_DOT":2.79e-6,"MEAN_MOTION_DDOT":0},{"OBJECT_NAME":"NOAA 20 (JPSS-1)","OBJECT_ID":"2017-073A","EPOCH":"2026-03-15T06:08:16.893312","MEAN_MOTION":14.19537656,"ECCENTRICITY":0.00014544,"INCLINATION":98.7698,"RA_OF_ASC_NODE":14.5877,"ARG_OF_PERICENTER":130.1629,"MEAN_ANOMALY":229.9675,"EPHEMERIS_TYPE":0,"CLASSIFICATION_TYPE":"U","NORAD_CAT_ID":43013,"ELEMENT_SET_NO":999,"REV_AT_EPOCH":43114,"BSTAR":5.4340581e-5,"MEAN_MOTION_DOT":7.0e-7,"MEAN_MOTION_DDOT":0},{"OBJECT_NAME":"GOES 17","OBJECT_ID":"2018-022A","EPOCH":"2026-03-15T04:56:57.675840","MEAN_MOTION":1.00272306,"ECCENTRICITY":0.00016317,"INCLINATION":0.6944,"RA_OF_ASC_NODE":87.3034,"ARG_OF_PERICENTER":233.7876,"MEAN_ANOMALY":196.4486,"EPHEMERIS_TYPE":0,"CLASSIFICATION_TYPE":"U","NORAD_CAT_ID":43226,"ELEMENT_SET_NO":999,"REV_AT_EPOCH":2948,"BSTAR":0,"MEAN_MOTION_DOT":-1.83e-6,"MEAN_MOTION_DDOT":0},{"OBJECT_NAME":"FENGYUN 2H","OBJECT_ID":"2018-050A","EPOCH":"2026-03-15T03:42:40.108896","MEAN_MOTION":1.00272494,"ECCENTRICITY":0.00013026,"INCLINATION":2.7866,"RA_OF_ASC_NODE":80.2164,"ARG_OF_PERICENTER":170.7083,"MEAN_ANOMALY":56.6014,"EPHEMERIS_TYPE":0,"CLASSIFICATION_TYPE":"U","NORAD_CAT_ID":43491,"ELEMENT_SET_NO":999,"REV_AT_EPOCH":2849,"BSTAR":0,"MEAN_MOTION_DOT":-1.27e-6,"MEAN_MOTION_DDOT":0}]
