METEOSAT-11 (MSG-4)     
1 40732U 15034A   26074.27961642  .00000062  00000+0  00000+0 0  9991
2 40732   2.9656  71.6157 0001832 275.2073 295.9483  1.00269539  6273
ELEKTRO-L 2             
1 41105U 15074A   26074.27873809 -.00000114  00000+0  00000+0 0  9996
2 41105   6.4571  71.6721 0002807 249.8242 297.2200  1.00273414 37563
INSAT-3DR               
1 41752U 16054A   26074.08235059 -.00000078  00000+0  00000+0 0  9990
2 41752   0.0736  91.5367 0012708 190.6992 354.0875  1.00271936 34875
HIMAWARI-9              
1 41836U 16064A   26072.32490329 -.00000275  00000+0  00000+0 0  9991
2 41836   0.0168 188.9082 0001493 206.6887  33.0744  1.00270032 34248
GOES 16                 
1 41866U 16071A   26074.26088466 -.00000092  00000+0  00000+0 0  9999
2 41866   0.1254  86.8652 0002168 230.0129 205.2111  1.00272428 34160
FENGYUN 4A              
1 41882U 16077A   26074.30612487 -.00000356  00000+0  00000+0 0  9997
2 41882   2.0823  81.2695 0007138 133.1891 192.4143  1.00274081 33986
CYGFM05                 
1 41884U 16078A   26073.65231446  .00030580  00000+0  48299-3 0  9996
2 41884  34.9574 164.6361 0006701 330.1782  29.8559 15.52451571514031
CYGFM04                 
1 41885U 16078B   26074.26784798  .00031087  00000+0  43170-3 0  9994
2 41885  34.9331 132.4540 0004954  13.1189 346.9663 15.55973460514333
CYGFM02                 
1 41886U 16078C   26074.22474362  .00034447  00000+0  43771-3 0  9994
2 41886  34.9415 129.5149 0005945  16.1137 343.9776 15.58321272514474
CYGFM01                 
1 41887U 16078D   26073.93517395  .00028727  00000+0  44624-3 0  9998
2 41887  34.9406 164.5289 0006429 323.5571  36.4713 15.52921053514027
CYGFM08                 
1 41888U 16078E   26074.22979884  .00028902  00000+0  41872-3 0  9994
2 41888  34.9437 144.3382 0007318 356.4495   3.6176 15.54822338514319
CYGFM07                 
1 41890U 16078G   26074.25949651  .00028249  00000+0  40422-3 0  9993
2 41890  34.9454 132.5718 0005472  16.9766 343.1140 15.55175155514346
CYGFM03                 
1 41891U 16078H   26074.23052341  .00028741  00000+0  41123-3 0  9999
2 41891  34.9408 134.7365 0004951 358.9951   1.0762 15.55177453514314
FENGYUN 3D              
1 43010U 17072A   26074.27422888  .00000279  00000+0  15381-3 0  9993
2 43010  99.0034  47.0455 0001332   1.1242 358.9936 14.19717190431662
NOAA 20 (JPSS-1)        
1 43013U 17073A   26074.25575108  .00000070  00000+0  54341-4 0  9998
2 43013  98.7698  14.5877 0001454 130.1629 229.9675 14.19537656431148
GOES 17                 
1 43226U 18022A   26074.20622310 -.00000183  00000+0  00000+0 0  9996
2 43226   0.6944  87.3034 0001631 233.7876 196.4486  1.00272306 29486
FENGYUN 2H              
1 43491U 18050A   26074.15463089 -.00000127  00000+0  00000+0 0  9999
2 43491   2.7866  80.2164 0001302 170.7083  56.6014  1.00272494 28499
